NORAD_CAT_ID,OBJECT_NAME,OBJECT_TYPE,EPOCH,MEAN_MOTION,ECCENTRICITY,INCLINATION,RA_OF_ASC_NODE,ARG_OF_PERICENTER,MEAN_ANOMALY,BSTAR,MEAN_MOTION_DOT,MEAN_MOTION_DDOT,TLE_LINE0,TLE_LINE1,TLE_LINE2,SEMIMAJOR_AXIS,PERIOD,APOGEE,PERIGEE,DECAYED
53590.0,STARLINK-4689,PAYLOAD,2023-02-22 03:02:28,15.08849339,0.0001232,53.2175,194.3219,102.2574,257.8556,0.00013318,1.833e-05,0.0,0 STARLINK-4689,1 53590U 22104C   23053.12672246  .00001833  00000-0  13318-3 0  9998,2 53590  53.2175 194.3219 0001232 102.2574 257.8556 15.08849339 27114,6917.852,95.437,540.569,538.865,0.0
53590.0,STARLINK-4689,PAYLOAD,2023-02-22 12:34:47,15.08842655,0.0001422,53.2164,192.5382,99.4172,260.6981,-4.707e-05,-1.037e-05,0.0,0 STARLINK-4689,1 53590U 22104C   23053.52416338 -.00001037  00000-0 -47070-4 0  9991,2 53590  53.2164 192.5382 0001422  99.4172 260.6981 15.08842655 28215,6917.872,95.437,540.721,538.754,0.0
53590.0,STARLINK-4689,PAYLOAD,2023-02-22 20:31:43,15.08854063,0.0001503,53.2167,191.0515,98.4434,261.6728,0.00028293,4.219e-05,0.0,0 STARLINK-4689,1 53590U 22104C   23053.85536018  .00004219  00000-0  28293-3 0  9993,2 53590  53.2167 191.0515 0001503  98.4434 261.6728 15.08854063 28261,6917.837,95.437,540.742,538.663,0.0
53590.0,STARLINK-4689,PAYLOAD,2023-02-23 12:25:34,15.08841813,0.0001169,53.2178,188.0782,97.0779,263.0346,8.0738e-05,9.97e-06,0.0,0 STARLINK-4689,1 53590U 22104C   23054.51776383  .00000997  00000-0  80738-4 0  9990,2 53590  53.2178 188.0782 0001169  97.0779 263.0346 15.08841813 27327,6917.875,95.437,540.549,538.931,0.0
53590.0,STARLINK-4689,PAYLOAD,2023-02-23 20:22:30,15.08857676,0.0001115,53.2174,186.591,87.9209,272.191,0.0011992,0.00018858,0.0,0 STARLINK-4689,1 53590U 22104C   23054.84896360  .00018858  00000-0  11992-2 0  9993,2 53590  53.2174 186.5910 0001115  87.9209 272.1910 15.08857676 28419,6917.826,95.436,540.463,538.92,0.0
53590.0,STARLINK-4689,PAYLOAD,2023-02-24 07:30:12,15.0883287,0.0001077,53.2169,184.5091,111.7981,248.3126,0.00044067,6.731e-05,0.0,0 STARLINK-4689,1 53590U 22104C   23055.31264908  .00006731  00000-0  44067-3 0  9990,2 53590  53.2169 184.5091 0001077 111.7981 248.3126 15.08832870 27446,6917.902,95.438,540.512,539.022,0.0
53590.0,STARLINK-4689,PAYLOAD,2023-02-24 12:16:22,15.08839265,9.8e-05,53.217,183.6183,116.921,243.1883,0.0013323,0.00020979,0.0,0 STARLINK-4689,1 53590U 22104C   23055.51136920  .00020979  00000-0  13323-2 0  9994,2 53590  53.2170 183.6183 0000980 116.9210 243.1883 15.08839265 28511,6917.883,95.438,540.426,539.07,0.0
53590.0,STARLINK-4689,PAYLOAD,2023-02-24 20:13:17,15.08857784,0.0001028,53.2171,182.1309,104.7706,255.34,0.0016175,0.00025561,0.0,0 STARLINK-4689,1 53590U 22104C   23055.84256707  .00025561  00000-0  16175-2 0  9996,2 53590  53.2171 182.1309 0001028 104.7706 255.3400 15.08857784 27521,6917.826,95.436,540.402,538.98,0.0
53590.0,STARLINK-4689,PAYLOAD,2023-02-25 00:59:27,15.08846722,6.3e-05,53.2176,181.2388,107.0568,253.0493,0.00059915,9.262e-05,0.0,0 STARLINK-4689,1 53590U 22104C   23056.04128721  .00009262  00000-0  59915-3 0  9993,2 53590  53.2176 181.2388 0000630 107.0568 253.0493 15.08846722 27553,6917.86,95.437,540.161,539.289,0.0
53590.0,STARLINK-4689,PAYLOAD,2023-02-25 12:07:09,15.08837443,0.0001207,53.2171,179.1584,94.9677,265.1453,0.00074923,0.00011655,0.0,0 STARLINK-4689,1 53590U 22104C   23056.50497365  .00011655  00000-0  74923-3 0  9992,2 53590  53.2171 179.1584 0001207  94.9677 265.1453 15.08837443 27626,6917.888,95.438,540.588,538.918,0.0
53590.0,STARLINK-4689,PAYLOAD,2023-02-25 16:53:19,15.08845516,0.0001134,53.2175,178.2665,94.9326,265.1795,0.00063547,9.842e-05,0.0,0 STARLINK-4689,1 53590U 22104C   23056.70369252  .00009842  00000-0  63547-3 0  9992,2 53590  53.2175 178.2665 0001134  94.9326 265.1795 15.08845516 28697,6917.864,95.437,540.513,538.944,0.0
53590.0,STARLINK-4689,PAYLOAD,2023-02-26 00:50:14,15.08843885,0.0001108,53.2165,176.7794,93.2657,266.8462,0.00067148,0.00010416,0.0,0 STARLINK-4689,1 53590U 22104C   23057.03489418  .00010416  00000-0  67148-3 0  9996,2 53590  53.2165 176.7794 0001108  93.2657 266.8462 15.08843885 28744,6917.869,95.437,540.5,538.967,0.0
53590.0,STARLINK-4689,PAYLOAD,2023-02-26 16:44:05,15.08869202,0.0001392,53.2172,173.806,91.1049,269.0103,0.0013159,0.00020733,0.0,0 STARLINK-4689,1 53590U 22104C   23057.69728855  .00020733  00000-0  13159-2 0  9994,2 53590  53.2172 173.8060 0001392  91.1049 269.0103 15.08869202 27807,6917.791,95.436,540.619,538.693,0.0
53590.0,STARLINK-4689,PAYLOAD,2023-02-26 19:54:51,15.08878136,0.0001227,53.2164,173.2109,87.1177,272.9956,0.0013718,0.00021634,0.0,0 STARLINK-4689,1 53590U 22104C   23057.82976406  .00021634  00000-0  13718-2 0  9998,2 53590  53.2164 173.2109 0001227  87.1177 272.9956 15.08878136 28862,6917.764,95.435,540.478,538.78,0.0
53590.0,STARLINK-4689,PAYLOAD,2023-02-27 00:41:01,15.08831037,8.65e-05,53.2166,172.3179,127.5768,232.5303,-0.00039558,-6.576e-05,0.0,0 STARLINK-4689,1 53590U 22104C   23058.02849076 -.00006576  00000-0 -39558-3 0  9994,2 53590  53.2166 172.3179 0000865 127.5768 232.5303 15.08831037 27858,6917.908,95.438,540.371,539.174,0.0
53590.0,STARLINK-4689,PAYLOAD,2023-02-27 18:10:15,15.08926282,0.0001145,53.2152,169.0486,107.5191,252.5927,0.006462,0.00104327,0.0,0 STARLINK-4689,1 53590U 22104C   23058.75712220  .00104327  00000-0  64620-2 0  9992,2 53590  53.2152 169.0486 0001145 107.5191 252.5927 15.08926282 27960,6917.617,95.432,540.274,538.69,0.0
53590.0,STARLINK-4689,PAYLOAD,2023-02-28 00:31:48,15.08827858,0.000196,53.2165,167.8582,83.7112,276.4103,-0.00026211,-4.456e-05,0.0,0 STARLINK-4689,1 53590U 22104C   23059.02209425 -.00004456  00000-0 -26211-3 0  9990,2 53590  53.2165 167.8582 0001960  83.7112 276.4103 15.08827858 28006,6917.918,95.438,541.138,538.427,0.0
53590.0,STARLINK-4689,PAYLOAD,2023-02-28 13:14:53,15.08856509,0.000168,53.2186,165.4788,78.2145,281.9036,0.0020034,0.00031755,0.0,0 STARLINK-4689,1 53590U 22104C   23059.55201208  .00031755  00000-0  20034-2 0  9995,2 53590  53.2186 165.4788 0001680  78.2145 281.9036 15.08856509 28084,6917.83,95.437,540.857,538.533,0.0
53590.0,STARLINK-4689,PAYLOAD,2023-03-01 00:22:35,15.08857679,0.0001059,53.2167,163.3975,93.1059,267.0054,0.0010983,0.00017243,0.0,0 STARLINK-4689,1 53590U 22104C   23060.01568948  .00017243  00000-0  10983-2 0  9993,2 53590  53.2167 163.3975 0001059  93.1059 267.0054 15.08857679 28150,6917.826,95.436,540.424,538.959,0.0
53590.0,STARLINK-4689,PAYLOAD,2023-03-01 11:30:18,15.08832439,0.0001139,53.2168,161.3163,93.859,266.2532,0.0028911,0.00046015,0.0,0 STARLINK-4689,1 53590U 22104C   23060.47937746  .00046015  00000-0  28911-2 0  9998,2 53590  53.2168 161.3163 0001139  93.8590 266.2532 15.08832439 28221,6917.904,95.438,540.556,538.981,0.0
53590.0,STARLINK-4689,PAYLOAD,2023-03-01 17:51:50,15.08846086,0.0001346,53.2167,160.1259,98.0268,262.0877,0.0018875,0.00029884,0.0,0 STARLINK-4689,1 53590U 22104C   23060.74433765  .00029884  00000-0  18875-2 0  9993,2 53590  53.2167 160.1259 0001346  98.0268 262.0877 15.08846086 29301,6917.862,95.437,540.658,538.796,0.0
53590.0,STARLINK-4689,PAYLOAD,2023-03-02 00:13:23,15.08834958,0.0001019,53.2174,158.9369,126.153,233.9557,0.00057782,8.919e-05,0.0,0 STARLINK-4689,1 53590U 22104C   23061.00929863  .00008919  00000-0  57782-3 0  9999,2 53590  53.2174 158.9369 0001019 126.1530 233.9557 15.08834958 28304,6917.896,95.438,540.466,539.056,0.0
53590.0,STARLINK-4689,PAYLOAD,2023-03-02 17:42:38,15.08859376,0.000138,53.2173,155.6667,107.3228,252.7916,0.0017425,0.00027567,0.0,0 STARLINK-4689,1 53590U 22104C   23061.73794111  .00027567  00000-0  17425-2 0  9994,2 53590  53.2173 155.6667 0001380 107.3228 252.7916 15.08859376 29450,6917.821,95.436,540.641,538.732,0.0
53590.0,STARLINK-4689,PAYLOAD,2023-03-03 06:25:43,15.08866253,0.0001484,53.2178,153.2864,123.716,236.3974,0.0020065,0.00031813,0.0,0 STARLINK-4689,1 53590U 22104C   23062.26785926  .00031813  00000-0  20065-2 0  9990,2 53590  53.2178 153.2864 0001484 123.7160 236.3974 15.08866253 28497,6917.8,95.436,540.692,538.639,0.0
53590.0,STARLINK-4689,PAYLOAD,2023-03-03 11:11:52,15.08879853,0.000174,53.218,152.3947,124.7977,235.3179,0.0023188,0.00036849,0.0,0 STARLINK-4689,1 53590U 22104C   23062.46657480  .00036849  00000-0  23188-2 0  9998,2 53590  53.2180 152.3947 0001740 124.7977 235.3179 15.08879853 29569,6917.759,95.435,540.827,538.42,0.0
53590.0,STARLINK-4689,PAYLOAD,2023-03-03 17:33:23,15.0889859,0.00016,53.2176,151.204,119.5716,240.5436,0.0024506,0.00038992,0.0,0 STARLINK-4689,1 53590U 22104C   23062.73152650  .00038992  00000-0  24506-2 0  9993,2 53590  53.2176 151.2040 0001600 119.5716 240.5436 15.08898590 29602,6917.701,95.434,540.673,538.459,0.0
53590.0,STARLINK-4689,PAYLOAD,2023-03-04 11:02:38,15.08854402,0.0001279,53.2182,147.9357,116.5772,243.5352,0.0023821,0.00037842,0.0,0 STARLINK-4689,1 53590U 22104C   23063.46017150  .00037842  00000-0  23821-2 0  9991,2 53590  53.2182 147.9357 0001279 116.5772 243.5352 15.08854402 28673,6917.836,95.437,540.586,538.817,0.0
53590.0,STARLINK-4689,PAYLOAD,2023-03-04 22:10:20,15.08821811,6.78e-05,53.2182,145.856,150.1654,209.9377,-0.00098567,-0.00015932,0.0,0 STARLINK-4689,1 53590U 22104C   23063.92385271 -.00015932  00000-0 -98567-3 0  9992,2 53590  53.2182 145.8560 0000678 150.1654 209.9377 15.08821811 28740,6917.936,95.439,540.27,539.332,0.0
53590.0,STARLINK-4689,PAYLOAD,2023-03-05 06:07:17,15.08813966,0.0001126,53.2173,144.366,113.8995,246.2115,0.0023747,0.00037681,0.0,0 STARLINK-4689,1 53590U 22104C   23064.25506408  .00037681  00000-0  23747-2 0  9996,2 53590  53.2173 144.3660 0001126 113.8995 246.2115 15.08813966 28799,6917.96,95.439,540.604,539.046,0.0
53590.0,STARLINK-4689,PAYLOAD,2023-03-05 22:01:08,15.08874434,6.36e-05,53.2185,141.3949,81.2671,278.8393,0.0028325,0.00045123,0.0,0 STARLINK-4689,1 53590U 22104C   23064.91745975  .00045123  00000-0  28325-2 0  9990,2 53590  53.2185 141.3949 0000636  81.2671 278.8393 15.08874434 28890,6917.775,95.435,540.08,539.2,0.0
